NORAD_CAT_ID,OBJECT_NAME,OBJECT_TYPE,EPOCH,MEAN_MOTION,ECCENTRICITY,INCLINATION,RA_OF_ASC_NODE,ARG_OF_PERICENTER,MEAN_ANOMALY,BSTAR,MEAN_MOTION_DOT,MEAN_MOTION_DDOT,TLE_LINE0,TLE_LINE1,TLE_LINE2,SEMIMAJOR_AXIS,PERIOD,APOGEE,PERIGEE,DECAYED
53851.0,STARLINK-4755,PAYLOAD,2023-05-31 09:46:58,15.08846213,0.000102,53.2153,162.6971,82.2338,277.8769,8.4042e-06,-1.54e-06,0.0,0 STARLINK-4755,1 53851U 22114AK  23151.40761993 -.00000154  00000-0  84042-5 0  9997,2 53851  53.2153 162.6971 0001020  82.2338 277.8769 15.08846213 39460,6917.861,95.437,540.432,539.021,0.0
53851.0,STARLINK-4755,PAYLOAD,2023-06-01 00:05:26,15.08837975,0.0001063,53.2156,160.0195,85.0543,275.057,9.2913e-05,1.191e-05,0.0,0 STARLINK-4755,1 53851U 22114AK  23152.00378403  .00001191  00000-0  92913-4 0  9990,2 53851  53.2156 160.0195 0001063  85.0543 275.0570 15.08837975 39554,6917.887,95.438,540.487,539.016,0.0
53851.0,STARLINK-4755,PAYLOAD,2023-06-01 08:02:22,15.08840266,0.0001093,53.2156,158.5326,84.905,275.2067,0.00011155,1.488e-05,0.0,0 STARLINK-4755,1 53851U 22114AK  23152.33498285  .00001488  00000-0  11155-3 0  9994,2 53851  53.2156 158.5326 0001093  84.9050 275.2067 15.08840266 40143,6917.88,95.438,540.501,538.988,0.0
53851.0,STARLINK-4755,PAYLOAD,2023-06-02 07:53:09,15.08841799,0.0001127,53.2155,154.072,84.2015,275.9105,6.3872e-05,7.29e-06,0.0,0 STARLINK-4755,1 53851U 22114AK  23153.32858300  .00000729  00000-0  63872-4 0  9993,2 53851  53.2155 154.0720 0001127  84.2015 275.9105 15.08841799 39750,6917.875,95.437,540.52,538.96,0.0
53851.0,STARLINK-4755,PAYLOAD,2023-06-02 17:25:28,15.08841161,0.000113,53.2156,152.2879,83.6274,276.4847,5.9478e-05,6.59e-06,0.0,0 STARLINK-4755,1 53851U 22114AK  23153.72602382  .00000659  00000-0  59478-4 0  9993,2 53851  53.2156 152.2879 0001130  83.6274 276.4847 15.08841161 40350,6917.877,95.437,540.524,538.96,0.0
53851.0,STARLINK-4755,PAYLOAD,2023-06-03 09:19:19,15.08842117,0.0001097,53.2153,149.314,85.0756,275.0362,6.4238e-05,7.35e-06,0.0,0 STARLINK-4755,1 53851U 22114AK  23154.38842271  .00000735  00000-0  64238-4 0  9994,2 53851  53.2153 149.3140 0001097  85.0756 275.0362 15.08842117 39917,6917.874,95.437,540.498,538.98,0.0
53851.0,STARLINK-4755,PAYLOAD,2023-06-03 17:16:15,15.08839597,0.000109,53.2152,147.8269,85.4245,274.6872,5.1399e-05,5.3e-06,0.0,0 STARLINK-4755,1 53851U 22114AK  23154.71962428  .00000530  00000-0  51399-4 0  9995,2 53851  53.2152 147.8269 0001090  85.4245 274.6872 15.08839597 40507,6917.882,95.438,540.501,538.993,0.0
53851.0,STARLINK-4755,PAYLOAD,2023-06-04 09:10:06,15.08839105,0.0001115,53.2155,144.8532,86.9582,273.1538,4.3286e-05,4.01e-06,0.0,0 STARLINK-4755,1 53851U 22114AK  23155.38202515  .00000401  00000-0  43286-4 0  9996,2 53851  53.2155 144.8532 0001115  86.9582 273.1538 15.08839105 40607,6917.883,95.438,540.519,538.977,0.0
53851.0,STARLINK-4755,PAYLOAD,2023-06-05 05:50:07,15.08843014,0.0001113,53.2155,140.9873,86.4239,273.6881,6.8467e-05,8.02e-06,0.0,0 STARLINK-4755,1 53851U 22114AK  23156.24314155  .00000802  00000-0  68467-4 0  9999,2 53851  53.2155 140.9873 0001113  86.4239 273.6881 15.08843014 40738,6917.871,95.437,540.506,538.966,0.0
53851.0,STARLINK-4755,PAYLOAD,2023-06-05 15:22:26,15.08838565,0.0001113,53.2155,139.2033,85.3824,274.7295,2.9822e-05,1.87e-06,0.0,0 STARLINK-4755,1 53851U 22114AK  23156.64058568  .00000187  00000-0  29822-4 0  9994,2 53851  53.2155 139.2033 0001113  85.3824 274.7295 15.08838565 40258,6917.885,95.438,540.52,538.98,0.0
53851.0,STARLINK-4755,PAYLOAD,2023-06-06 08:51:41,15.08837856,0.0001172,53.2157,135.9328,86.5732,273.5394,4.6767e-05,4.57e-06,0.0,0 STARLINK-4755,1 53851U 22114AK  23157.36922722  .00000457  00000-0  46767-4 0  9993,2 53851  53.2157 135.9328 0001172  86.5732 273.5394 15.08837856 40907,6917.887,95.438,540.563,538.941,0.0
53851.0,STARLINK-4755,PAYLOAD,2023-06-07 05:31:42,15.08839232,0.0001139,53.2154,132.0671,86.6797,273.4326,2.3753e-05,9e-07,0.0,0 STARLINK-4755,1 53851U 22114AK  23158.23034873  .00000090  00000-0  23753-4 0  9994,2 53851  53.2154 132.0671 0001139  86.6797 273.4326 15.08839232 40496,6917.883,95.438,540.536,538.96,0.0
53851.0,STARLINK-4755,PAYLOAD,2023-06-07 08:42:28,15.08840985,0.0001142,53.2156,131.4723,86.3729,273.7394,3.6491e-05,2.93e-06,0.0,0 STARLINK-4755,1 53851U 22114AK  23158.36282725  .00000293  00000-0  36491-4 0  9997,2 53851  53.2156 131.4723 0001142  86.3729 273.7394 15.08840985 41053,6917.877,95.437,540.532,538.952,0.0
53851.0,STARLINK-4755,PAYLOAD,2023-06-07 21:25:34,15.08831447,0.0001127,53.2156,129.093,92.4709,267.6412,3.1063e-05,2.06e-06,0.0,0 STARLINK-4755,1 53851U 22114AK  23158.89275482  .00000206  00000-0  31063-4 0  9991,2 53851  53.2156 129.0930 0001127  92.4709 267.6412 15.08831447 41130,6917.907,95.438,540.551,538.992,0.0
53851.0,STARLINK-4755,PAYLOAD,2023-06-07 23:00:57,15.08831268,0.0001127,53.2157,128.7956,92.6131,267.499,2.8488e-05,1.66e-06,0.0,0 STARLINK-4755,1 53851U 22114AK  23158.95899532  .00000166  00000-0  28488-4 0  9998,2 53851  53.2157 128.7956 0001127  92.6131 267.4990 15.08831268 40607,6917.907,95.438,540.552,538.992,0.0
53851.0,STARLINK-4755,PAYLOAD,2023-06-08 06:57:52,15.08836623,0.0001078,53.2154,127.3085,90.8837,269.2279,3.724e-05,3.05e-06,0.0,0 STARLINK-4755,1 53851U 22114AK  23159.29019295  .00000305  00000-0  37240-4 0  9997,2 53851  53.2154 127.3085 0001078  90.8837 269.2279 15.08836623 41195,6917.891,95.438,540.501,539.01,0.0
53851.0,STARLINK-4755,PAYLOAD,2023-06-08 14:54:48,15.08837154,0.0001069,53.2156,125.8216,90.7541,269.3574,4.74e-05,4.67e-06,0.0,0 STARLINK-4755,1 53851U 22114AK  23159.62139298  .00000467  00000-0  47400-4 0  9998,2 53851  53.2156 125.8216 0001069  90.7541 269.3574 15.08837154 41242,6917.889,95.438,540.494,539.015,0.0
53851.0,STARLINK-4755,PAYLOAD,2023-06-08 21:16:20,15.08838053,0.0001057,53.2153,124.6319,91.2852,268.8261,6.6281e-05,7.67e-06,0.0,0 STARLINK-4755,1 53851U 22114AK  23159.88635238  .00000767  00000-0  66281-4 0  9992,2 53851  53.2153 124.6319 0001057  91.2852 268.8261 15.08838053 40748,6917.886,95.438,540.483,539.02,0.0
53851.0,STARLINK-4755,PAYLOAD,2023-06-09 05:13:16,15.08844515,0.0001047,53.2152,123.1449,90.3227,269.7885,8.5324e-05,1.071e-05,0.0,0 STARLINK-4755,1 53851U 22114AK  23160.21754789  .00001071  00000-0  85324-4 0  9992,2 53851  53.2152 123.1449 0001047  90.3227 269.7885 15.08844515 41338,6917.867,95.437,540.456,539.007,0.0
53851.0,STARLINK-4755,PAYLOAD,2023-06-09 21:07:08,15.088336,0.0001135,53.2157,120.172,90.5238,269.5884,4.8219e-05,4.8e-06,0.0,0 STARLINK-4755,1 53851U 22114AK  23160.87995674  .00000480  00000-0  48219-4 0  9999,2 53851  53.2157 120.1720 0001135  90.5238 269.5884 15.08833600 41435,6917.9,95.438,540.55,538.98,0.0
53851.0,STARLINK-4755,PAYLOAD,2023-06-10 03:28:40,15.08835047,0.0001133,53.2158,118.9825,90.3335,269.7787,3.3328e-05,2.43e-06,0.0,0 STARLINK-4755,1 53851U 22114AK  23161.14491721  .00000243  00000-0  33328-4 0  9996,2 53851  53.2158 118.9825 0001133  90.3335 269.7787 15.08835047 40936,6917.896,95.438,540.544,538.977,0.0
53851.0,STARLINK-4755,PAYLOAD,2023-06-10 06:39:26,15.08837181,0.0001182,53.2156,118.3875,90.0506,270.0622,4.8925e-05,4.91e-06,0.0,0 STARLINK-4755,1 53851U 22114AK  23161.27739571  .00000491  00000-0  48925-4 0  9992,2 53851  53.2156 118.3875 0001182  90.0506 270.0622 15.08837181 41490,6917.889,95.438,540.572,538.936,0.0
53851.0,STARLINK-4755,PAYLOAD,2023-06-11 06:30:13,15.08846966,0.000152,53.2157,113.927,97.2546,262.8619,-2.0982e-05,-6.22e-06,0.0,0 STARLINK-4755,1 53851U 22114AK  23162.27099268 -.00000622  00000-0 -20982-4 0  9996,2 53851  53.2157 113.9270 0001520  97.2546 262.8619 15.08846966 41104,6917.859,95.437,540.776,538.673,0.0
53851.0,STARLINK-4755,PAYLOAD,2023-06-11 20:48:42,15.08839988,0.0001304,53.2157,111.2507,89.126,270.9882,8.4817e-05,1.062e-05,0.0,0 STARLINK-4755,1 53851U 22114AK  23162.86715395  .00001062  00000-0  84817-4 0  9991,2 53851  53.2157 111.2507 0001304  89.1260 270.9882 15.08839988 41738,6917.88,95.438,540.648,538.843,0.0
53851.0,STARLINK-4755,PAYLOAD,2023-06-12 06:21:00,15.08846016,0.0001345,53.216,109.4661,91.872,268.2427,0.00010619,1.403e-05,0.0,0 STARLINK-4755,1 53851U 22114AK  23163.26458891  .00001403  00000-0  10619-3 0  9998,2 53851  53.2160 109.4661 0001345  91.8720 268.2427 15.08846016 41799,6917.862,95.437,540.657,538.797,0.0
53851.0,STARLINK-4755,PAYLOAD,2023-06-13 03:01:02,15.088352,0.0001369,53.2166,105.5996,92.6826,267.4323,5.2619e-06,-2.04e-06,0.0,0 STARLINK-4755,1 53851U 22114AK  23164.12571943 -.00000204  00000-0  52619-5 0  9995,2 53851  53.2166 105.5996 0001369  92.6826 267.4323 15.08835200 41389,6917.895,95.438,540.707,538.813,0.0
53851.0,STARLINK-4755,PAYLOAD,2023-06-13 20:30:16,15.08838233,0.0001187,53.2171,102.3307,92.996,267.1168,-1.6131e-05,-5.45e-06,0.0,0 STARLINK-4755,1 53851U 22114AK  23164.85435995 -.00000545  00000-0 -16131-4 0  9998,2 53851  53.2171 102.3307 0001187  92.9960 267.1168 15.08838233 42032,6917.886,95.438,540.572,538.93,0.0
53851.0,STARLINK-4755,PAYLOAD,2023-06-14 06:02:35,15.08842524,0.0001173,53.217,100.5462,91.418,268.6947,2.0381e-05,3.7e-07,0.0,0 STARLINK-4755,1 53851U 22114AK  23165.25179653  .00000037  00000-0  20381-4 0  9995,2 53851  53.2170 100.5462 0001173  91.4180 268.6947 15.08842524 41551,6917.873,95.437,540.549,538.926,0.0
53851.0,STARLINK-4755,PAYLOAD,2023-06-15 02:42:36,15.08833368,0.0001061,53.2169,96.6804,88.8593,271.2521,2.2062e-05,6.3e-07,0.0,0 STARLINK-4755,1 53851U 22114AK  23166.11292446  .00000063  00000-0  22062-4 0  9994,2 53851  53.2169  96.6804 0001061  88.8593 271.2521 15.08833368 41686,6917.901,95.438,540.5,539.032,0.0
53851.0,STARLINK-4755,PAYLOAD,2023-06-15 04:17:59,15.08834,0.0001107,53.2172,96.3833,90.6755,269.4364,2.5271e-05,1.14e-06,0.0,0 STARLINK-4755,1 53851U 22114AK  23166.17916426  .00000114  00000-0  25271-4 0  9993,2 53851  53.2172  96.3833 0001107  90.6755 269.4364 15.08834000 42231,6917.899,95.438,540.53,538.998,0.0
